[{"OBJECT_NAME":"CARTOSAT-2A","OBJECT_ID":"2008-021A","EPOCH":"2026-03-10T00:17:01.509792","MEAN_MOTION":14.79100763,"ECCENTRICITY":0.00132764,"INCLINATION":97.7772,"RA_OF_ASC_NODE":121.0502,"ARG_OF_PERICENTER":75.3983,"MEAN_ANOMALY":284.87,"EPHEMERIS_TYPE":0,"CLASSIFICATION_TYPE":"U","NORAD_CAT_ID":32783,"ELEMENT_SET_NO":999,"REV_AT_EPOCH":96414,"BSTAR":9.5052975e-5,"MEAN_MOTION_DOT":6.55e-6,"MEAN_MOTION_DDOT":0},{"OBJECT_NAME":"COSMOS 886 DEB","OBJECT_ID":"1976-126AU","EPOCH":"2026-03-09T14:38:52.099872","MEAN_MOTION":13.0403614,"ECCENTRICITY":0.0887804,"INCLINATION":65.7048,"RA_OF_ASC_NODE":353.5736,"ARG_OF_PERICENTER":82.996,"MEAN_ANOMALY":287.1083,"EPHEMERIS_TYPE":0,"CLASSIFICATION_TYPE":"U","NORAD_CAT_ID":9954,"ELEMENT_SET_NO":999,"REV_AT_EPOCH":61410,"BSTAR":0.00044012,"MEAN_MOTION_DOT":9.3e-6,"MEAN_MOTION_DDOT":0}]
